ORBCOMM FM05 [-]        
1 25117U 97084F   23328.69316862  .00002259  00000+0  72903-3 0  9994
2 25117  45.0156 217.5372 0002118 259.6787 100.3824 14.41759084358166
ORBCOMM FM06 [+]        
1 25118U 97084G   23328.12663111  .00002547  00000+0  81687-3 0  9994
2 25118  45.0145 220.4098 0001609 281.6912 231.6867 14.41717294358995
ORBCOMM FM07 [-]        
1 25119U 97084H   23328.91193618  .00002754  00000+0  88082-3 0  9998
2 25119  45.0139 217.1203 0002513 238.9664 121.0939 14.41663271359105
ORBCOMM FM03 [-]        
1 25158U 98007B   23328.91534943  .00002328  00000+0  91212-3 0  9993
2 25158 107.9761  46.7748 0047723 166.9890 193.2490 14.31505415342356
ORBCOMM FM04 [+]        
1 25159U 98007C   23328.93411580  .00002200  00000+0  86224-3 0  9993
2 25159 107.9744  49.6374 0043138 165.2489 194.9918 14.31769841342524
ORBCOMM FM17 [-]        
1 25413U 98046A   23328.31511322  .00001605  00000+0  63777-3 0  9992
2 25413  44.9954  66.0534 0003685 227.9836 132.0696 14.32544007321244
ORBCOMM FM18 [-]        
1 25414U 98046B   23328.48204931  .00002097  00000+0  77671-3 0  9990
2 25414  44.9957 355.7987 0006196 282.9389  77.0766 14.35106666322179
ORBCOMM FM19 [+]        
1 25415U 98046C   23328.45894076  .00002000  00000+0  74536-3 0  9994
2 25415  44.9966 357.1041 0005107 274.9401 236.2068 14.34966348322134
